CCSDS_OMM_VERS = 2.0
CREATION_DATE  = 
ORIGINATOR     = 

OBJECT_NAME    = STARLINK-36717
OBJECT_ID      = 2026-026Y
CENTER_NAME    = EARTH
REF_FRAME      = TEME
TIME_SYSTEM    = UTC
MEAN_ELEMENT_THEORY = SGP/SGP4

EPOCH          = 2026-03-02T15:14:26.400192
MEAN_MOTION    = 15.78799523
ECCENTRICITY   = .00008562
INCLINATION    = 97.2869
RA_OF_ASC_NODE = 116.0064
ARG_OF_PERICENTER = 48.5122
MEAN_ANOMALY   = 311.6218

EPHEMERIS_TYPE = 0
CLASSIFICATION_TYPE = U
NORAD_CAT_ID   = 67743
ELEMENT_SET_NO = 999
REV_AT_EPOCH   = 302
BSTAR          = -.53078506E-2
MEAN_MOTION_DOT = -.84263E-2
MEAN_MOTION_DDOT = 0

CCSDS_OMM_VERS = 2.0
CREATION_DATE  = 
ORIGINATOR     = 

OBJECT_NAME    = STARLINK-36692
OBJECT_ID      = 2026-026Z
CENTER_NAME    = EARTH
REF_FRAME      = TEME
TIME_SYSTEM    = UTC
MEAN_ELEMENT_THEORY = SGP/SGP4

EPOCH          = 2026-03-02T14:00:01.999872
MEAN_MOTION    = 15.77334007
ECCENTRICITY   = .00014257
INCLINATION    = 97.2859
RA_OF_ASC_NODE = 115.9490
ARG_OF_PERICENTER = 75.2877
MEAN_ANOMALY   = 341.0587

EPHEMERIS_TYPE = 0
CLASSIFICATION_TYPE = U
NORAD_CAT_ID   = 67744
ELEMENT_SET_NO = 999
REV_AT_EPOCH   = 417
BSTAR          = -.13037399E-1
MEAN_MOTION_DOT = -.1867697E-1
MEAN_MOTION_DDOT = 0

CCSDS_OMM_VERS = 2.0
CREATION_DATE  = 
ORIGINATOR     = 

OBJECT_NAME    = 2026-027A
OBJECT_ID      = 2026-027A
CENTER_NAME    = EARTH
REF_FRAME      = TEME
TIME_SYSTEM    = UTC
MEAN_ELEMENT_THEORY = SGP/SGP4

EPOCH          = 2026-03-02T15:33:48.966624
MEAN_MOTION    = 15.17542951
ECCENTRICITY   = .00097446
INCLINATION    = 97.4892
RA_OF_ASC_NODE = 190.7373
ARG_OF_PERICENTER = 219.7845
MEAN_ANOMALY   = 140.2675

EPHEMERIS_TYPE = 0
CLASSIFICATION_TYPE = U
NORAD_CAT_ID   = 67746
ELEMENT_SET_NO = 999
REV_AT_EPOCH   = 279
BSTAR          = .54115742E-3
MEAN_MOTION_DOT = .10813E-3
MEAN_MOTION_DDOT = 0

CCSDS_OMM_VERS = 2.0
CREATION_DATE  = 
ORIGINATOR     = 

OBJECT_NAME    = 2026-027B
OBJECT_ID      = 2026-027B
CENTER_NAME    = EARTH
REF_FRAME      = TEME
TIME_SYSTEM    = UTC
MEAN_ELEMENT_THEORY = SGP/SGP4

EPOCH          = 2026-03-02T15:32:03.212160
MEAN_MOTION    = 15.17643233
ECCENTRICITY   = .0009863
INCLINATION    = 97.4887
RA_OF_ASC_NODE = 190.7375
ARG_OF_PERICENTER = 222.3257
MEAN_ANOMALY   = 137.7216

EPHEMERIS_TYPE = 0
CLASSIFICATION_TYPE = U
NORAD_CAT_ID   = 67747
ELEMENT_SET_NO = 999
REV_AT_EPOCH   = 279
BSTAR          = .53248431E-3
MEAN_MOTION_DOT = .10669E-3
MEAN_MOTION_DDOT = 0

CCSDS_OMM_VERS = 2.0
CREATION_DATE  = 
ORIGINATOR     = 

OBJECT_NAME    = 2026-027C
OBJECT_ID      = 2026-027C
CENTER_NAME    = EARTH
REF_FRAME      = TEME
TIME_SYSTEM    = UTC
MEAN_ELEMENT_THEORY = SGP/SGP4

EPOCH          = 2026-03-02T15:30:12.166560
MEAN_MOTION    = 15.17698729
ECCENTRICITY   = .00102002
INCLINATION    = 97.4899
RA_OF_ASC_NODE = 190.7420
ARG_OF_PERICENTER = 224.9650
MEAN_ANOMALY   = 135.0758

EPHEMERIS_TYPE = 0
CLASSIFICATION_TYPE = U
NORAD_CAT_ID   = 67748
ELEMENT_SET_NO = 999
REV_AT_EPOCH   = 279
BSTAR          = .39142253E-3
MEAN_MOTION_DOT = .7835E-4
MEAN_MOTION_DDOT = 0

CCSDS_OMM_VERS = 2.0
CREATION_DATE  = 
ORIGINATOR     = 

OBJECT_NAME    = 2026-027D
OBJECT_ID      = 2026-027D
CENTER_NAME    = EARTH
REF_FRAME      = TEME
TIME_SYSTEM    = UTC
MEAN_ELEMENT_THEORY = SGP/SGP4

EPOCH          = 2026-03-02T15:26:43.992672
MEAN_MOTION    = 15.17978301
ECCENTRICITY   = .00099261
INCLINATION    = 97.4893
RA_OF_ASC_NODE = 190.7440
ARG_OF_PERICENTER = 230.1306
MEAN_ANOMALY   = 129.9055

EPHEMERIS_TYPE = 0
CLASSIFICATION_TYPE = U
NORAD_CAT_ID   = 67749
ELEMENT_SET_NO = 999
REV_AT_EPOCH   = 274
BSTAR          = .64921531E-3
MEAN_MOTION_DOT = .13153E-3
MEAN_MOTION_DDOT = 0

CCSDS_OMM_VERS = 2.0
CREATION_DATE  = 
ORIGINATOR     = 

OBJECT_NAME    = 2026-027E
OBJECT_ID      = 2026-027E
CENTER_NAME    = EARTH
REF_FRAME      = TEME
TIME_SYSTEM    = UTC
MEAN_ELEMENT_THEORY = SGP/SGP4

EPOCH          = 2026-03-02T13:51:50.162688
MEAN_MOTION    = 15.17947840
ECCENTRICITY   = .00091274
INCLINATION    = 97.4904
RA_OF_ASC_NODE = 190.6817
ARG_OF_PERICENTER = 231.4452
MEAN_ANOMALY   = 128.5964

EPHEMERIS_TYPE = 0
CLASSIFICATION_TYPE = U
NORAD_CAT_ID   = 67750
ELEMENT_SET_NO = 999
REV_AT_EPOCH   = 278
BSTAR          = .52129874E-3
MEAN_MOTION_DOT = .10533E-3
MEAN_MOTION_DDOT = 0

CCSDS_OMM_VERS = 2.0
CREATION_DATE  = 
ORIGINATOR     = 

OBJECT_NAME    = 2026-027F
OBJECT_ID      = 2026-027F
CENTER_NAME    = EARTH
REF_FRAME      = TEME
TIME_SYSTEM    = UTC
MEAN_ELEMENT_THEORY = SGP/SGP4

EPOCH          = 2026-03-02T13:49:36.950304
MEAN_MOTION    = 15.18188697
ECCENTRICITY   = .00103077
INCLINATION    = 97.4904
RA_OF_ASC_NODE = 190.6842
ARG_OF_PERICENTER = 231.7797
MEAN_ANOMALY   = 128.2509

EPHEMERIS_TYPE = 0
CLASSIFICATION_TYPE = U
NORAD_CAT_ID   = 67751
ELEMENT_SET_NO = 999
REV_AT_EPOCH   = 278
BSTAR          = .88659071E-3
MEAN_MOTION_DOT = .1811E-3
MEAN_MOTION_DDOT = 0

CCSDS_OMM_VERS = 2.0
CREATION_DATE  = 
ORIGINATOR     = 

OBJECT_NAME    = 2026-027G
OBJECT_ID      = 2026-027G
CENTER_NAME    = EARTH
REF_FRAME      = TEME
TIME_SYSTEM    = UTC
MEAN_ELEMENT_THEORY = SGP/SGP4

EPOCH          = 2026-03-02T15:25:10.977888
MEAN_MOTION    = 15.18052563
ECCENTRICITY   = .00094313
INCLINATION    = 97.4899
RA_OF_ASC_NODE = 190.7471
ARG_OF_PERICENTER = 233.5383
MEAN_ANOMALY   = 126.4982

EPHEMERIS_TYPE = 0
CLASSIFICATION_TYPE = U
NORAD_CAT_ID   = 67752
ELEMENT_SET_NO = 999
REV_AT_EPOCH   = 279
BSTAR          = .59760818E-3
MEAN_MOTION_DOT = .12125E-3
MEAN_MOTION_DDOT = 0

CCSDS_OMM_VERS = 2.0
CREATION_DATE  = 
ORIGINATOR     = 

OBJECT_NAME    = 2026-027H
OBJECT_ID      = 2026-027H
CENTER_NAME    = EARTH
REF_FRAME      = TEME
TIME_SYSTEM    = UTC
MEAN_ELEMENT_THEORY = SGP/SGP4

EPOCH          = 2026-03-02T15:13:56.776224
MEAN_MOTION    = 15.69012019
ECCENTRICITY   = .02357753
INCLINATION    = 97.5125
RA_OF_ASC_NODE = 192.1066
ARG_OF_PERICENTER = 270.8410
MEAN_ANOMALY   = 86.5846

EPHEMERIS_TYPE = 0
CLASSIFICATION_TYPE = U
NORAD_CAT_ID   = 67753
ELEMENT_SET_NO = 999
REV_AT_EPOCH   = 287
BSTAR          = .61479128E-3
MEAN_MOTION_DOT = .39227E-2
MEAN_MOTION_DDOT = .2376174E-5

CCSDS_OMM_VERS = 2.0
CREATION_DATE  = 
ORIGINATOR     = 

OBJECT_NAME    = 2026-027J
OBJECT_ID      = 2026-027J
CENTER_NAME    = EARTH
REF_FRAME      = TEME
TIME_SYSTEM    = UTC
MEAN_ELEMENT_THEORY = SGP/SGP4

EPOCH          = 2026-03-02T14:24:30.400704
MEAN_MOTION    = 15.88871786
ECCENTRICITY   = .01721942
INCLINATION    = 97.5072
RA_OF_ASC_NODE = 192.3030
ARG_OF_PERICENTER = 269.8915
MEAN_ANOMALY   = 88.2626

EPHEMERIS_TYPE = 0
CLASSIFICATION_TYPE = U
NORAD_CAT_ID   = 67754
ELEMENT_SET_NO = 999
REV_AT_EPOCH   = 282
BSTAR          = .12502785E-2
MEAN_MOTION_DOT = .1367618E-1
MEAN_MOTION_DDOT = .2438975E-5

CCSDS_OMM_VERS = 2.0
CREATION_DATE  = 
ORIGINATOR     = 

OBJECT_NAME    = 2026-028A
OBJECT_ID      = 2026-028A
CENTER_NAME    = EARTH
REF_FRAME      = TEME
TIME_SYSTEM    = UTC
MEAN_ELEMENT_THEORY = SGP/SGP4

EPOCH          = 2026-03-02T07:30:12.038976
MEAN_MOTION    = 0.99524423
ECCENTRICITY   = .00420121
INCLINATION    = 0.4880
RA_OF_ASC_NODE = 289.4039
ARG_OF_PERICENTER = 229.4644
MEAN_ANOMALY   = 201.2682

EPHEMERIS_TYPE = 0
CLASSIFICATION_TYPE = U
NORAD_CAT_ID   = 67756
ELEMENT_SET_NO = 999
REV_AT_EPOCH   = 18
BSTAR          = 0
MEAN_MOTION_DOT = -.69E-6
MEAN_MOTION_DDOT = 0

