STARLINK-36717          
1 67743U 26026Y   26061.63502778 -.00842630  00000+0 -53079-2 0  9996
2 67743  97.2869 116.0064 0000856  48.5122 311.6218 15.78799523  3022
STARLINK-36692          
1 67744U 26026Z   26061.58335648 -.01867697  00000+0 -13037-1 0  9991
2 67744  97.2859 115.9490 0001425  75.2877 341.0587 15.77334007  4174
2026-027A               
1 67746U 26027A   26061.64848341  .00010813  00000+0  54116-3 0  9992
2 67746  97.4892 190.7373 0009744 219.7845 140.2675 15.17542951  2794
2026-027B               
1 67747U 26027B   26061.64725940  .00010669  00000+0  53248-3 0  9996
2 67747  97.4887 190.7375 0009863 222.3257 137.7216 15.17643233  2797
2026-027C               
1 67748U 26027C   26061.64597415  .00007835  00000+0  39142-3 0  9999
2 67748  97.4899 190.7420 0010200 224.9650 135.0758 15.17698729  2796
2026-027D               
1 67749U 26027D   26061.64356473  .00013153  00000+0  64922-3 0  9991
2 67749  97.4893 190.7440 0009926 230.1306 129.9055 15.17978301  2747
2026-027E               
1 67750U 26027E   26061.57766392  .00010533  00000+0  52130-3 0  9997
2 67750  97.4904 190.6817 0009127 231.4452 128.5964 15.17947840  2780
2026-027F               
1 67751U 26027F   26061.57612211  .00018110  00000+0  88659-3 0  9992
2 67751  97.4904 190.6842 0010307 231.7797 128.2509 15.18188697  2786
2026-027G               
1 67752U 26027G   26061.64248817  .00012125  00000+0  59761-3 0  9990
2 67752  97.4899 190.7471 0009431 233.5383 126.4982 15.18052563  2794
2026-027H               
1 67753U 26027H   26061.63468491  .00392270  23762-5  61479-3 0  9999
2 67753  97.5125 192.1066 0235775 270.8410  86.5846 15.69012019  2873
2026-027J               
1 67754U 26027J   26061.60035186  .01367618  24390-5  12503-2 0  9998
2 67754  97.5072 192.3030 0172194 269.8915  88.2626 15.88871786  2826
2026-028A               
1 67756U 26028A   26061.31263934 -.00000069  00000+0  00000+0 0  9999
2 67756   0.4880 289.4039 0042012 229.4644 201.2682  0.99524423   186
